LILACSAT-2
1 40908U 15049K   17207.96547371  .00000345  00000-0  23042-4 0  9996
2 40908 097.4623 212.1527 0017851 075.3074 285.0135 15.13150465102189
XW-2F
1 40910U 15049M   17207.84118644  .00000928  00000-0  52191-4 0  9997
2 40910 097.4539 213.0395 0017141 074.9142 285.3986 15.15601038102168
XW-2B
1 40911U 15049N   17207.93537483  .00000591  00000-0  35395-4 0  9997
2 40911 097.4562 212.7810 0016210 077.2417 283.0626 15.14656401102158
DCBB
1 40912U 15049P   17207.91015852  .00001075  00000-0  56475-4 0  9997
2 40912 097.4514 215.0604 0017405 066.5676 021.0225 15.17709924102313
TW-1C
1 40926U 15051B   17207.89474800  .00006176  00000-0  14079-3 0  9994
2 40926 097.2267 247.1533 0012444 033.5049 091.0462 15.43204255103041
TW-1A
1 40928U 15051D   17207.75673662  .00003088  00000-0  89103-4 0  9998
2 40928 097.2242 242.8597 0014234 059.5635 032.4729 15.36350157102775
IO-86
1 40931U 15052B   17207.35408804  .00000639  00000-0  59604-0 0  9991
2 40931 006.0026 313.4738 0013142 074.6083 285.5556 14.76533907098762
GomX-3
1 40949U 98067HA  16292.18357804  .08527750  12374-4  77882-3 0  9992
2 40949  51.6055 106.7696 0006699 286.1344  73.8944 16.38002265 59645
LQSat
1 40958U 15057A   17207.91967885  .00000015  00000-0  10130-4 0  9999
2 40958 097.9766 282.5417 0017061 301.8110 058.1430 14.72974171096975
AO-85
1 40967U 15058D   17207.21099873  .00000093  00000-0  30059-4 0 00366
2 40967 064.7773 100.5071 0173720 063.4129 298.4659 14.75453106005555
ATHENOXAT-1
1 41168U 15077C   17207.49099537  .00002113  00000-0  81662-4 0  9997
2 41168 014.9593 242.2766 0014394 199.5681 031.8478 15.11672673088996
ChubuSat-2
1 41338U 16012B   17207.42042982  .00000269  00000-0  14370-4 0  9993
2 41338 031.0022 223.0851 0013908 087.9283 272.2945 14.99762613078888
ChubuSat-3
1 41339U 16012C   17207.40983926  .00000293  00000-0  16229-4 0  9996
2 41339 031.0099 222.2361 0013587 094.3438 265.8753 14.99966544078869
Horyu-4
1 41340U 16012D   17207.36631961  .00000369  00000-0  21726-4 0  9994
2 41340 031.0041 219.7362 0014228 102.7410 257.4817 15.00628458078902
OUFTI-1
1 41458U 16025C   17207.91760534  .00002306  00000-0  12599-3 0  9998
2 41458 098.1827 247.7684 0174966 156.6481 204.2816 15.03293690068556
e-st at r-II
1 41459U 16025D   17207.87618667  .00001014  00000-0  58203-4 0  9991
2 41459 098.1789 247.6700 0175815 157.2272 203.6874 15.03101516068531
AAUSAT4
1 41460U 16025E   17207.78331531  .00003036  00000-0  16480-3 0  9991
2 41460 098.1767 247.6970 0168151 155.5400 205.3898 15.04052668068547
MinXSS
1 41474U 98067HU  17125.52237589  .05724416  12300-4  86147-3 0  9995
2 41474 051.6449 208.6967 0008167 329.0747 030.9230 16.33400422055623
CADRE
1 41475U 98067HV  17003.74787607  .12518598  12537-4  55989-3 0  9998
2 41475  51.6110 110.0165 0004040 312.3134  47.7551 16.43344525 36494
NODES 1
1 41477U 98067HX  17207.85813664  .00093163  00000-0  33171-3 0  9991
2 41477 051.6249 156.1189 0001137 071.8621 288.2507 15.88153929068366
NODES 2
1 41478U 98067HY  17207.85409258  .00085360  00000-0  31775-3 0  9990
2 41478 051.6288 156.8909 0001283 072.3515 287.7630 15.87286594068351
LO-87
1 41557U 16033B   17207.65688896  .00001008  00000-0  40615-4 0  9997
2 41557 097.4622 287.1741 0013107 223.3032 136.7178 15.27150116064452
NuSat2
1 41558U 16033C   17207.82472502  .00001074  00000-0  43299-4 0  9996
2 41558 097.4649 287.4013 0012541 221.2436 138.7856 15.26986295064474
Lapan A3
1 41603U 16040E   17207.82661256  .00000298  00000-0  17323-4 0  9997
2 41603 097.4587 269.3319 0012284 300.8458 170.4825 15.19372240060674
Swayam
1 41607U 16040J   17207.87028020  .00001177  00000-0  56313-4 0  9991
2 41607 097.4578 269.7551 0012816 301.2897 058.7083 15.20904366060635
Pratham
1 41783U 16059A   17207.90178375  .00000049  00000-0  19030-4 0  9991
2 41783 098.1642 268.8588 0034414 038.3280 322.0357 14.62846391044408
AlSat 1N
1 41789U 16059G   17207.85745586  .00000053  00000-0  19337-4 0  9990
2 41789 098.1651 269.3930 0029236 032.8488 327.4513 14.64059426044417
ScatSat
1 41790U 16059H   17207.93900757  .00000009  00000-0  13214-4 0  9993
2 41790 098.0618 256.2995 0011831 031.3109 328.8788 14.50114252044023
TY-1
1 41844U 16066D   17207.85668828  .00001051  00000-0  48758-4 0  9991
2 41844 097.4043 214.4118 0017771 097.7322 000.7186 15.22123841039377
CAS-2T
1 41845U 16066E   17207.85549935  .00000068  00000-0  20204-4 0  9992
2 41845 098.7757 224.4360 0367525 130.4124 232.9724 14.37767171037194
Pegasus-1
1 41846U 16066F   17207.86007670  .00000289  00000-0  53792-4 0  9992
2 41846 098.7796 224.1989 0370528 131.8389 231.5066 14.37045546037174
STARS-C
1 41895U 98067KR  17207.41917973  .00021268  00000-0  23191-3 0  9993
2 41895 051.6364 195.6152 0005256 087.8439 272.3157 15.63321655034124
Tancredo 1
1 41931U 98067KT  17207.96497444  .00048482  00000-0  37576-3 0  9999
2 41931 051.6345 187.9698 0007491 060.2698 299.9045 15.71303829029844
TO-89
1 41932U 98067KU  17207.86953390  .00010070  00000-0  12769-3 0  9995
2 41932 051.6393 195.6504 0006373 057.8183 302.3427 15.60111945029734
AOBA-V3LOX3
1 41935U 98067KX  17207.33852742  .00012364  00000-0  15299-3 0  9998
2 41935 051.6388 198.0990 0005846 058.7533 301.4032 15.60510670029752
OSNSAT
1 41939U 98067KZ  17207.48101964  .00026336  00000-0  26155-3 0  9998
2 41939 051.6362 193.7695 0007525 057.9993 302.1733 15.65541488029076
EO-88
1 42017U 17008BX  17207.92050091  .00001261  00000-0  56489-4 0  9999
2 42017 097.4925 269.2970 0008292 084.7929 275.4254 15.23099188024536
HAVELSAT
1 42700U 98067LH  17207.88889607  .00009761  00000-0  14115-3 0  9992
2 42700 051.6385 199.5092 0007166 104.1375 256.0413 15.56609453011129
SOMP2
1 42701U 98067LJ  17207.95671864  .00008773  00000-0  12833-3 0  9992
2 42701 051.6389 199.2139 0007044 105.3844 254.7926 15.56446813011125
Columbia
1 42702U 98067LK  17207.85845907  .00020868  00000-0  27848-3 0  9994
2 42702 051.6384 199.3059 0007584 094.7067 265.4792 15.58022087011046
PHOENIX
1 42706U 98067LP  17207.95502159  .00009174  00000-0  13347-3 0  9994
2 42706 051.6389 199.2048 0002665 075.3121 284.8166 15.56541992011042
X-CubeSat
1 42707U 98067LQ  17207.95599600  .00009346  00000-0  13597-3 0  9990
2 42707 051.6385 199.2090 0002712 074.6480 285.4811 15.56515814011036
qbee
1 42708U 98067LR  17207.89341778  .00009461  00000-0  13778-3 0  9994
2 42708 051.6386 199.5412 0002776 074.8959 285.2339 15.56472561010989
ZA-AeroSat
1 42713U 98067LU  17207.90475157  .00007780  00000-0  11608-3 0  9993
2 42713 051.6387 199.6164 0003456 049.7417 310.3877 15.56104667010691
LINK
1 42714U 98067LV  17207.96614843  .00012445  00000-0  17963-3 0  9991
2 42714 051.6383 199.2750 0003837 052.5376 307.5964 15.56376059010819
UPSat
1 42716U 98067LX  17207.95634746  .00011061  00000-0  15887-3 0  9992
2 42716 051.6385 199.2109 0005421 103.1587 257.0010 15.56639355010833
SpaceCube
1 42717U 98067LY  17207.89896730  .00009340  00000-0  13670-3 0  9994
2 42717 051.6385 199.5777 0005402 103.7152 256.4441 15.56348647010068
Hoopoe
1 42718U 98067LZ  17207.96020967  .00010315  00000-0  14941-3 0  9990
2 42718 051.6387 199.2372 0005442 102.7841 257.3759 15.56497887010071
Challenger
1 42721U 98067MA  17207.96846582  .00013845  00000-0  19735-3 0  9990
2 42721 051.6383 199.2890 0008919 087.9969 272.2044 15.56577576009775
NJUST-1
1 42722U 98067MB  17207.59816191  .00008579  00000-0  12842-3 0  9993
2 42722 051.6386 201.3166 0008585 089.6177 270.5798 15.55839455009716
UNSW-EC0
1 42723U 98067MC  17207.20702935  .00011322  00000-0  16528-3 0  9997
2 42723 051.6387 203.2052 0008600 086.5263 273.6712 15.56150523009637
DUTHsat
1 42724U 98067MD  17207.84481960  .00013581  00000-0  19478-3 0  9996
2 42724 051.6385 199.9643 0007845 089.1616 271.0274 15.56438964009659
LO-90
1 42725U 98067ME  17207.60048391  .00009132  00000-0  13638-3 0  9997
2 42725 051.6386 201.3328 0007591 091.1574 269.0287 15.55814242009616
nSIGHT1
1 42726U 98067MF  17207.86584645  .00004739  00000-0  75424-4 0  9993
2 42726 051.6391 200.1056 0007456 094.7537 265.4305 15.55354464009667
QBITO
1 42728U 98067MH  17207.52947038  .00010772  00000-0  15808-3 0  9990
2 42728 051.6389 201.6102 0004737 092.6374 267.5159 15.56086706009414
Aalto-2
1 42729U 98067MJ  17207.85044169  .00010343  00000-0  15205-3 0  9995
2 42729 051.6386 200.0031 0004752 093.5659 266.5876 15.56091579009474
SUSat
1 42730U 98067MK  17207.91611222  .00009159  00000-0  13580-3 0  9991
2 42730 051.6385 199.6910 0004811 092.8282 267.3260 15.56021845009480
i-INSPIRE II
1 42731U 98067ML  17207.91235778  .00011560  00000-0  16834-3 0  9994
2 42731 051.6381 199.6618 0008817 046.8600 313.3127 15.56191137009526
PolyITAN-2-SAU
1 42732U 98067MM  17207.39973301  .00011115  00000-0  16260-3 0  9997
2 42732 051.6378 202.2379 0008688 045.1635 315.0061 15.56113491009448
SNUSAT-1
1 42733U 98067MN  17207.46729401  .00010334  00000-0  15234-3 0  9998
2 42733 051.6379 201.9393 0008529 046.7292 313.4410 15.55995268009452
ExAlta-1
1 42734U 98067MP  17207.52702217  .00012238  00000-0  17759-3 0  9991
2 42734 051.6382 201.5891 0010417 066.7735 293.4352 15.56207569009418
Aoxiang-1
1 42735U 98067MQ  17207.91830074  .00008354  00000-0  12498-3 0  9997
2 42735 051.6385 199.7039 0009274 088.1795 272.0259 15.55889557010892
BeEagleSat
1 42736U 98067MR  17207.46872365  .00009584  00000-0  14214-3 0  9991
2 42736 051.6385 201.9515 0009188 085.5466 274.6575 15.55926360009518
Atlantis
1 42737U 98067MS  17207.57338398  .00020291  00000-0  27945-3 0  9990
2 42737 051.6378 201.1500 0009627 080.6751 279.5329 15.57176738009427
CAS-4B
1 42759U 17034B   17207.89318627  .00000194  00000-0  25730-4 0  9998
2 42759 043.0195 068.6211 0008348 243.9493 192.3331 15.08927274006308
CAS-4A
1 42761U 17034D   17207.89105058  .00000209  00000-0  26584-4 0  9998
2 42761 043.0201 068.6078 0008758 243.9999 191.7233 15.09001152006297
